0 BREEZE-M DEB
1 35543U 06006CL  13287.95260519 -.00000990  00000-0 -57598-2 0  1583
2 35543 052.7411 105.4816 5129149 183.1414 352.7970 04.99253356 95542
0 BREEZE-M DEB
1 35543U 06006CL  13296.16435917  .00000135  00000-0  90305-3 0  1596
2 35543 052.8030 100.2608 5126007 186.5163 351.6904 04.99231834 95957
